{
  "type": "FeatureCollection",
  "features": [
    {
      "type": "Feature",
      "properties": {
        "norad_id": 34070,
        "name": "COSMOS 2251 DEB",
        "group": "cosmos-2251-debris",
        "lat": 46.69562617848416,
        "lon": 140.86707458301234,
        "alt_km": 648.0393228086032,
        "timestamp": "2025-12-09T05:43:21.120101+00:00",
        "meta_object_name": "COSMOS 2251 DEB",
        "meta_object_id": "1993-036KH",
        "meta_epoch": "2025-12-08T20:28:07.198176",
        "meta_mean_motion": 14.76801297,
        "meta_eccentricity": 0.0018944,
        "meta_inclination": 74.0011,
        "meta_ra_of_asc_node": 123.9006,
        "meta_arg_of_pericenter": 239.346,
        "meta_mean_anomaly": 280.8162,
        "meta_ephemeris_type": 0,
        "meta_classification_type": "U",
        "meta_norad_cat_id": 34070,
        "meta_element_set_no": 999,
        "meta_rev_at_epoch": 88553,
        "meta_bstar": 0.0043754,
        "meta_mean_motion_dot": 0.00030898,
        "meta_mean_motion_ddot": 0,
        "tle_line1": "1 34070U 93036KH  25342.85286109  .00030898  00000+0  43754-2 0  9992",
        "tle_line2": "2 34070  74.0011 123.9006 0018944 239.3460 280.8162 14.76801297885534"
      },
      "geometry": {
        "type": "Point",
        "coordinates": [
          140.86707458301234,
          46.69562617848416
        ]
      }
    },
    {
      "type": "Feature",
      "properties": {
        "norad_id": 34114,
        "name": "COSMOS 2251 DEB",
        "group": "cosmos-2251-debris",
        "lat": 21.773019057837523,
        "lon": -136.08992572448292,
        "alt_km": 716.3148020836625,
        "timestamp": "2025-12-09T05:43:21.120112+00:00",
        "meta_object_name": "COSMOS 2251 DEB",
        "meta_object_id": "1993-036KK",
        "meta_epoch": "2025-12-08T07:54:05.737248",
        "meta_mean_motion": 14.56283741,
        "meta_eccentricity": 0.00473197,
        "meta_inclination": 74.0585,
        "meta_ra_of_asc_node": 52.1873,
        "meta_arg_of_pericenter": 48.4141,
        "meta_mean_anomaly": 23.5895,
        "meta_ephemeris_type": 0,
        "meta_classification_type": "U",
        "meta_norad_cat_id": 34114,
        "meta_element_set_no": 999,
        "meta_rev_at_epoch": 87737,
        "meta_bstar": 0.0020644256,
        "meta_mean_motion_dot": 9.263e-05,
        "meta_mean_motion_ddot": 0,
        "tle_line1": "1 34114U 93036KK  25342.32923307  .00009263  00000+0  20644-2 0  9996",
        "tle_line2": "2 34114  74.0585  52.1873 0047319  48.4141  23.5895 14.56283741877371"
      },
      "geometry": {
        "type": "Point",
        "coordinates": [
          -136.08992572448292,
          21.773019057837523
        ]
      }
    },
    {
      "type": "Feature",
      "properties": {
        "norad_id": 34115,
        "name": "COSMOS 2251 DEB",
        "group": "cosmos-2251-debris",
        "lat": -20.92463755631088,
        "lon": -117.45069088341859,
        "alt_km": 637.8752782848169,
        "timestamp": "2025-12-09T05:43:21.120122+00:00",
        "meta_object_name": "COSMOS 2251 DEB",
        "meta_object_id": "1993-036KL",
        "meta_epoch": "2025-12-08T18:27:36.415008",
        "meta_mean_motion": 14.79392365,
        "meta_eccentricity": 0.0028334,
        "meta_inclination": 74.0066,
        "meta_ra_of_asc_node": 249.77,
        "meta_arg_of_pericenter": 74.5133,
        "meta_mean_anomaly": 285.9169,
        "meta_ephemeris_type": 0,
        "meta_classification_type": "U",
        "meta_norad_cat_id": 34115,
        "meta_element_set_no": 999,
        "meta_rev_at_epoch": 89353,
        "meta_bstar": 0.0015372,
        "meta_mean_motion_dot": 0.00011527,
        "meta_mean_motion_ddot": 0,
        "tle_line1": "1 34115U 93036KL  25342.76917147  .00011527  00000+0  15372-2 0  9998",
        "tle_line2": "2 34115  74.0066 249.7700 0028334  74.5133 285.9169 14.79392365893538"
      },
      "geometry": {
        "type": "Point",
        "coordinates": [
          -117.45069088341859,
          -20.92463755631088
        ]
      }
    },
    {
      "type": "Feature",
      "properties": {
        "norad_id": 34116,
        "name": "COSMOS 2251 DEB",
        "group": "cosmos-2251-debris",
        "lat": -73.12384600188017,
        "lon": 118.76041455643931,
        "alt_km": 714.5247213148086,
        "timestamp": "2025-12-09T05:43:21.120133+00:00",
        "meta_object_name": "COSMOS 2251 DEB",
        "meta_object_id": "1993-036KM",
        "meta_epoch": "2025-12-08T20:15:50.418720",
        "meta_mean_motion": 14.52943726,
        "meta_eccentricity": 0.0012125,
        "meta_inclination": 74.0399,
        "meta_ra_of_asc_node": 190.1237,
        "meta_arg_of_pericenter": 266.2211,
        "meta_mean_anomaly": 108.7279,
        "meta_ephemeris_type": 0,
        "meta_classification_type": "U",
        "meta_norad_cat_id": 34116,
        "meta_element_set_no": 999,
        "meta_rev_at_epoch": 88430,
        "meta_bstar": 0.0011836,
        "meta_mean_motion_dot": 4.858e-05,
        "meta_mean_motion_ddot": 0,
        "tle_line1": "1 34116U 93036KM  25342.84433355  .00004858  00000+0  11836-2 0  9992",
        "tle_line2": "2 34116  74.0399 190.1237 0012125 266.2211 108.7279 14.52943726884303"
      },
      "geometry": {
        "type": "Point",
        "coordinates": [
          118.76041455643931,
          -73.12384600188017
        ]
      }
    },
    {
      "type": "Feature",
      "properties": {
        "norad_id": 34117,
        "name": "COSMOS 2251 DEB",
        "group": "cosmos-2251-debris",
        "lat": -73.51286566633826,
        "lon": -114.4900014986434,
        "alt_km": 802.3944534375987,
        "timestamp": "2025-12-09T05:43:21.120144+00:00",
        "meta_object_name": "COSMOS 2251 DEB",
        "meta_object_id": "1993-036KN",
        "meta_epoch": "2025-12-08T18:29:22.219584",
        "meta_mean_motion": 14.39987445,
        "meta_eccentricity": 0.0054427,
        "meta_inclination": 74.0405,
        "meta_ra_of_asc_node": 351.162,
        "meta_arg_of_pericenter": 68.7168,
        "meta_mean_anomaly": 291.9786,
        "meta_ephemeris_type": 0,
        "meta_classification_type": "U",
        "meta_norad_cat_id": 34117,
        "meta_element_set_no": 999,
        "meta_rev_at_epoch": 88066,
        "meta_bstar": 0.0011148,
        "meta_mean_motion_dot": 3.548e-05,
        "meta_mean_motion_ddot": 0,
        "tle_line1": "1 34117U 93036KN  25342.77039606  .00003548  00000+0  11148-2 0  9997",
        "tle_line2": "2 34117  74.0405 351.1620 0054427  68.7168 291.9786 14.39987445880668"
      },
      "geometry": {
        "type": "Point",
        "coordinates": [
          -114.4900014986434,
          -73.51286566633826
        ]
      }
    },
    {
      "type": "Feature",
      "properties": {
        "norad_id": 34118,
        "name": "COSMOS 2251 DEB",
        "group": "cosmos-2251-debris",
        "lat": 17.41189364166662,
        "lon": -98.43172659299367,
        "alt_km": 571.5494674890506,
        "timestamp": "2025-12-09T05:43:21.120155+00:00",
        "meta_object_name": "COSMOS 2251 DEB",
        "meta_object_id": "1993-036KP",
        "meta_epoch": "2025-12-08T20:16:47.105760",
        "meta_mean_motion": 14.93699744,
        "meta_eccentricity": 0.0060002,
        "meta_inclination": 73.9523,
        "meta_ra_of_asc_node": 257.1847,
        "meta_arg_of_pericenter": 88.5044,
        "meta_mean_anomaly": 335.5634,
        "meta_ephemeris_type": 0,
        "meta_classification_type": "U",
        "meta_norad_cat_id": 34118,
        "meta_element_set_no": 999,
        "meta_rev_at_epoch": 89118,
        "meta_bstar": 0.0025407,
        "meta_mean_motion_dot": 0.00027926,
        "meta_mean_motion_ddot": 0,
        "tle_line1": "1 34118U 93036KP  25342.84498965  .00027926  00000+0  25407-2 0  9992",
        "tle_line2": "2 34118  73.9523 257.1847 0060002  88.5044 335.5634 14.93699744891181"
      },
      "geometry": {
        "type": "Point",
        "coordinates": [
          -98.43172659299367,
          17.41189364166662
        ]
      }
    },
    {
      "type": "Feature",
      "properties": {
        "norad_id": 34120,
        "name": "COSMOS 2251 DEB",
        "group": "cosmos-2251-debris",
        "lat": -6.787538759041741,
        "lon": 44.24343928183384,
        "alt_km": 996.082650856024,
        "timestamp": "2025-12-09T05:43:21.120166+00:00",
        "meta_object_name": "COSMOS 2251 DEB",
        "meta_object_id": "1993-036KR",
        "meta_epoch": "2025-12-08T18:51:27.985248",
        "meta_mean_motion": 13.98677634,
        "meta_eccentricity": 0.0181784,
        "meta_inclination": 73.9918,
        "meta_ra_of_asc_node": 223.0692,
        "meta_arg_of_pericenter": 51.6433,
        "meta_mean_anomaly": 15.2877,
        "meta_ephemeris_type": 0,
        "meta_classification_type": "U",
        "meta_norad_cat_id": 34120,
        "meta_element_set_no": 999,
        "meta_rev_at_epoch": 85925,
        "meta_bstar": 0.00063446,
        "meta_mean_motion_dot": 1.027e-05,
        "meta_mean_motion_ddot": 0,
        "tle_line1": "1 34120U 93036KR  25342.78574057  .00001027  00000+0  63446-3 0  9995",
        "tle_line2": "2 34120  73.9918 223.0692 0181784  51.6433  15.2877 13.98677634859257"
      },
      "geometry": {
        "type": "Point",
        "coordinates": [
          44.24343928183384,
          -6.787538759041741
        ]
      }
    }
  ]
}